<?xml version="1.0" encoding="UTF-8"?>
<kml xmlns="http://www.opengis.net/kml/2.2">
  <Document>
    <name>BRT</name>
    <Style id="icon-1423-nodesc-normal">
      <IconStyle>
        <scale>1.1</scale>
        <Icon>
          <href>https://www.gstatic.com/mapspro/images/stock/1423-trans-bus.png</href>
        </Icon>
      </IconStyle>
      <LabelStyle>
        <scale>0</scale>
      </LabelStyle>
      <BalloonStyle>
        <text><![CDATA[<h3>$[name]</h3>]]></text>
      </BalloonStyle>
    </Style>
    <Style id="icon-1423-nodesc-highlight">
      <IconStyle>
        <scale>1.1</scale>
        <Icon>
          <href>https://www.gstatic.com/mapspro/images/stock/1423-trans-bus.png</href>
        </Icon>
      </IconStyle>
      <LabelStyle>
        <scale>1.1</scale>
      </LabelStyle>
      <BalloonStyle>
        <text><![CDATA[<h3>$[name]</h3>]]></text>
      </BalloonStyle>
    </Style>
    <StyleMap id="icon-1423-nodesc">
      <Pair>
        <key>normal</key>
        <styleUrl>#icon-1423-nodesc-normal</styleUrl>
      </Pair>
      <Pair>
        <key>highlight</key>
        <styleUrl>#icon-1423-nodesc-highlight</styleUrl>
      </Pair>
    </StyleMap>
    <Style id="line-4186F0-5000-nodesc-normal">
      <LineStyle>
        <color>fff08641</color>
        <width>5</width>
      </LineStyle>
      <BalloonStyle>
        <text><![CDATA[<h3>$[name]</h3>]]></text>
      </BalloonStyle>
    </Style>
    <Style id="line-4186F0-5000-nodesc-highlight">
      <LineStyle>
        <color>fff08641</color>
        <width>7.5</width>
      </LineStyle>
      <BalloonStyle>
        <text><![CDATA[<h3>$[name]</h3>]]></text>
      </BalloonStyle>
    </Style>
    <StyleMap id="line-4186F0-5000-nodesc">
      <Pair>
        <key>normal</key>
        <styleUrl>#line-4186F0-5000-nodesc-normal</styleUrl>
      </Pair>
      <Pair>
        <key>highlight</key>
        <styleUrl>#line-4186F0-5000-nodesc-highlight</styleUrl>
      </Pair>
    </StyleMap>
    <Placemark>
      <name>Sunway-Setia Jaya</name>
      <styleUrl>#icon-1423-nodesc</styleUrl>
      <Point>
        <coordinates>
          101.612287,3.082954,0
        </coordinates>
      </Point>
    </Placemark>
    <Placemark>
      <name>Mentari</name>
      <styleUrl>#icon-1423-nodesc</styleUrl>
      <Point>
        <coordinates>
          101.6102175,3.0763057,0
        </coordinates>
      </Point>
    </Placemark>
    <Placemark>
      <name>Sunway Lagoon</name>
      <styleUrl>#icon-1423-nodesc</styleUrl>
      <Point>
        <coordinates>
          101.6107489,3.0707087,0
        </coordinates>
      </Point>
    </Placemark>
    <Placemark>
      <name>SunMed</name>
      <styleUrl>#icon-1423-nodesc</styleUrl>
      <Point>
        <coordinates>
          101.6085748,3.0654882,0
        </coordinates>
      </Point>
    </Placemark>
    <Placemark>
      <name>SunU-Monash</name>
      <styleUrl>#icon-1423-nodesc</styleUrl>
      <Point>
        <coordinates>
          101.6016,3.065346,0
        </coordinates>
      </Point>
    </Placemark>
    <Placemark>
      <name>South Quay-USJ 1</name>
      <styleUrl>#icon-1423-nodesc</styleUrl>
      <Point>
        <coordinates>
          101.596727,3.06163,0
        </coordinates>
      </Point>
    </Placemark>
    <Placemark>
      <name>USJ7</name>
      <styleUrl>#icon-1423-nodesc</styleUrl>
      <Point>
        <coordinates>
          101.592009,3.055348,0
        </coordinates>
      </Point>
    </Placemark>
    <Placemark>
      <name>BRT</name>
      <styleUrl>#line-4186F0-5000-nodesc</styleUrl>
      <LineString>
        <tessellate>1</tessellate>
        <coordinates>
          101.612282,3.082952,0
          101.6121467,3.0829069,0
          101.61208,3.082867,0
          101.6120266,3.082793,0
          101.6119959,3.0827164,0
          101.6119853,3.082594,0
          101.6120282,3.081174,0
          101.6120092,3.0810833,0
          101.6119839,3.081018,0
          101.611934,3.080955,0
          101.611853,3.080908,0
          101.6117465,3.0808609,0
          101.610675,3.080852,0
          101.610554,3.080827,0
          101.6104417,3.0807781,0
          101.610383,3.0807227,0
          101.6103186,3.0806494,0
          101.6102869,3.0805734,0
          101.6102552,3.0804586,0
          101.6102225,3.0762983,0
          101.6102074,3.0749029,0
          101.6102279,3.0747219,0
          101.6102892,3.074566,0
          101.6106795,3.0739206,0
          101.6107299,3.0737792,0
          101.6107465,3.0736489,0
          101.6107439,3.070706,0
          101.6107282,3.0689601,0
          101.6107229,3.0659737,0
          101.6106954,3.0658139,0
          101.610643,3.065688,0
          101.610554,3.065598,0
          101.610436,3.065538,0
          101.6103229,3.0654999,0
          101.6085667,3.0654852,0
          101.605943,3.065507,0
          101.604294,3.0653858,0
          101.603487,3.0653236,0
          101.6020552,3.0653256,0
          101.601599,3.065315,0
          101.5992072,3.0653316,0
          101.599009,3.065284,0
          101.598911,3.065213,0
          101.5988343,3.0651441,0
          101.5987502,3.0650404,0
          101.5987101,3.0649238,0
          101.5986851,3.0647638,0
          101.5986835,3.0630185,0
          101.5986652,3.0627703,0
          101.5986044,3.0624752,0
          101.5984332,3.0619883,0
          101.598374,3.06186,0
          101.598275,3.06175,0
          101.598116,3.061664,0
          101.5979535,3.0616153,0
          101.596614,3.061617,0
          101.595487,3.061616,0
          101.594674,3.061587,0
          101.594508,3.061577,0
          101.594346,3.06152,0
          101.5942166,3.0613997,0
          101.5941046,3.0611847,0
          101.5940522,3.0609373,0
          101.5940611,3.0575672,0
          101.5940718,3.0574646,0
          101.5941922,3.0570202,0
          101.5942079,3.0568811,0
          101.5942012,3.0566043,0
          101.5941393,3.0564829,0
          101.5940439,3.0564097,0
          101.593905,3.056384,0
          101.592402,3.056365,0
          101.592286,3.056298,0
          101.592214,3.056202,0
          101.592191,3.056104,0
          101.592211,3.055446,0
          101.592162,3.055376,0
          101.592014,3.055348,0
        </coordinates>
      </LineString>
    </Placemark>
  </Document>
</kml>
